{
  "norad_id": 55798,
  "name": "ONEWEB-0556",
  "history": [
    {
      "epoch": "2026-03-28T20:35:05.460576",
      "apogee_km": 1183.1552659604258,
      "perigee_km": 1180.3919674318113,
      "latitude_deg": 51.129518990600886,
      "longitude_deg": -157.8605993599631,
      "semi_major_axis_km": 7559.910616696118,
      "eccentricity": 0.00018276,
      "inclination_deg": 87.9135,
      "raan_deg": 290.5171,
      "arg_perigee_deg": 119.4972,
      "mean_anomaly_deg": 240.6344,
      "mean_motion_rev_day": 13.20771749
    },
    {
      "epoch": "2026-03-29T02:02:21.586848",
      "apogee_km": 1183.1700472897573,
      "perigee_km": 1180.3743928601725,
      "latitude_deg": -12.759400800600138,
      "longitude_deg": -136.04268127982505,
      "semi_major_axis_km": 7559.909220074965,
      "eccentricity": 0.0001849,
      "inclination_deg": 87.9135,
      "raan_deg": 290.4717,
      "arg_perigee_deg": 119.2806,
      "mean_anomaly_deg": 240.8512,
      "mean_motion_rev_day": 13.20772115
    }
  ]
}